{
  "type": "FeatureCollection",
  "features": [
    {
      "type": "Feature",
      "properties": {
        "norad_id": 59626,
        "name": "LEGION 2",
        "group": "resource",
        "lat": 58.72742462075548,
        "lon": -109.0632639248993,
        "alt_km": 514.9527419256738,
        "timestamp": "2025-12-09T14:52:25.823862+00:00",
        "meta_object_name": "LEGION 2",
        "meta_object_id": "2024-081B",
        "meta_epoch": "2025-12-09T06:25:34.721472",
        "meta_mean_motion": 15.16439022,
        "meta_eccentricity": 0.00058375,
        "meta_inclination": 97.5216,
        "meta_ra_of_asc_node": 58.0228,
        "meta_arg_of_pericenter": 308.5513,
        "meta_mean_anomaly": 51.5196,
        "meta_ephemeris_type": 0,
        "meta_classification_type": "U",
        "meta_norad_cat_id": 59626,
        "meta_element_set_no": 999,
        "meta_rev_at_epoch": 8875,
        "meta_bstar": 0.0003690163,
        "meta_mean_motion_dot": 7.113e-05,
        "meta_mean_motion_ddot": 0,
        "tle_line1": "1 59626U 24081B   25343.26776298  .00007113  00000+0  36902-3 0  9991",
        "tle_line2": "2 59626  97.5216  58.0228 0005837 308.5513  51.5196 15.16439022 88751"
      },
      "geometry": {
        "type": "Point",
        "coordinates": [
          -109.0632639248993,
          58.72742462075548
        ]
      }
    },
    {
      "type": "Feature",
      "properties": {
        "norad_id": 60182,
        "name": "ALOS-4 (DAICHI-4)",
        "group": "resource",
        "lat": -12.377612783923599,
        "lon": -103.23988732976576,
        "alt_km": 635.4857657284983,
        "timestamp": "2025-12-09T14:52:25.823872+00:00",
        "meta_object_name": "ALOS-4 (DAICHI-4)",
        "meta_object_id": "2024-123A",
        "meta_epoch": "2025-12-09T05:53:28.207104",
        "meta_mean_motion": 14.79467524,
        "meta_eccentricity": 0.00014343,
        "meta_inclination": 97.9226,
        "meta_ra_of_asc_node": 78.1425,
        "meta_arg_of_pericenter": 103.1642,
        "meta_mean_anomaly": 256.973,
        "meta_ephemeris_type": 0,
        "meta_classification_type": "U",
        "meta_norad_cat_id": 60182,
        "meta_element_set_no": 999,
        "meta_rev_at_epoch": 7779,
        "meta_bstar": 0.00038256044,
        "meta_mean_motion_dot": 2.806e-05,
        "meta_mean_motion_ddot": 0,
        "tle_line1": "1 60182U 24123A   25343.24546536  .00002806  00000+0  38256-3 0  9993",
        "tle_line2": "2 60182  97.9226  78.1425 0001434 103.1642 256.9730 14.79467524 77791"
      },
      "geometry": {
        "type": "Point",
        "coordinates": [
          -103.23988732976576,
          -12.377612783923599
        ]
      }
    },
    {
      "type": "Feature",
      "properties": {
        "norad_id": 60452,
        "name": "LEGION 3",
        "group": "resource",
        "lat": 21.748249182474297,
        "lon": 123.331228876823,
        "alt_km": 507.2705705005792,
        "timestamp": "2025-12-09T14:52:25.823883+00:00",
        "meta_object_name": "LEGION 3",
        "meta_object_id": "2024-146A",
        "meta_epoch": "2025-12-09T06:18:47.856960",
        "meta_mean_motion": 15.15704757,
        "meta_eccentricity": 0.00145001,
        "meta_inclination": 45.0026,
        "meta_ra_of_asc_node": 328.7701,
        "meta_arg_of_pericenter": 179.7738,
        "meta_mean_anomaly": 180.3149,
        "meta_ephemeris_type": 0,
        "meta_classification_type": "U",
        "meta_norad_cat_id": 60452,
        "meta_element_set_no": 999,
        "meta_rev_at_epoch": 7320,
        "meta_bstar": 0.0004039194,
        "meta_mean_motion_dot": 7.585e-05,
        "meta_mean_motion_ddot": 0,
        "tle_line1": "1 60452U 24146A   25343.26305390  .00007585  00000+0  40392-3 0  9994",
        "tle_line2": "2 60452  45.0026 328.7701 0014500 179.7738 180.3149 15.15704757 73206"
      },
      "geometry": {
        "type": "Point",
        "coordinates": [
          123.331228876823,
          21.748249182474297
        ]
      }
    },
    {
      "type": "Feature",
      "properties": {
        "norad_id": 60453,
        "name": "LEGION 4",
        "group": "resource",
        "lat": 24.22348431163765,
        "lon": -148.1204870698611,
        "alt_km": 520.9032057953009,
        "timestamp": "2025-12-09T14:52:25.823894+00:00",
        "meta_object_name": "LEGION 4",
        "meta_object_id": "2024-146B",
        "meta_epoch": "2025-12-09T06:19:48.721440",
        "meta_mean_motion": 15.15767585,
        "meta_eccentricity": 0.00097854,
        "meta_inclination": 45.0385,
        "meta_ra_of_asc_node": 60.5068,
        "meta_arg_of_pericenter": 292.9763,
        "meta_mean_anomaly": 67.0084,
        "meta_ephemeris_type": 0,
        "meta_classification_type": "U",
        "meta_norad_cat_id": 60453,
        "meta_element_set_no": 999,
        "meta_rev_at_epoch": 7205,
        "meta_bstar": 0.00038671177,
        "meta_mean_motion_dot": 7.254e-05,
        "meta_mean_motion_ddot": 0,
        "tle_line1": "1 60453U 24146B   25343.26375835  .00007254  00000+0  38671-3 0  9996",
        "tle_line2": "2 60453  45.0385  60.5068 0009785 292.9763  67.0084 15.15767585 72056"
      },
      "geometry": {
        "type": "Point",
        "coordinates": [
          -148.1204870698611,
          24.22348431163765
        ]
      }
    },
    {
      "type": "Feature",
      "properties": {
        "norad_id": 60989,
        "name": "SENTINEL-2C",
        "group": "resource",
        "lat": 37.59611024241166,
        "lon": -117.18614692183479,
        "alt_km": 785.6337792500617,
        "timestamp": "2025-12-09T14:52:25.823904+00:00",
        "meta_object_name": "SENTINEL-2C",
        "meta_object_id": "2024-157A",
        "meta_epoch": "2025-12-09T04:08:36.251520",
        "meta_mean_motion": 14.30815346,
        "meta_eccentricity": 0.00011884,
        "meta_inclination": 98.5685,
        "meta_ra_of_asc_node": 55.7066,
        "meta_arg_of_pericenter": 97.9261,
        "meta_mean_anomaly": 262.2056,
        "meta_ephemeris_type": 0,
        "meta_classification_type": "U",
        "meta_norad_cat_id": 60989,
        "meta_element_set_no": 999,
        "meta_rev_at_epoch": 6581,
        "meta_bstar": 0.00011761531,
        "meta_mean_motion_dot": 2.65e-06,
        "meta_mean_motion_ddot": 0,
        "tle_line1": "1 60989U 24157A   25343.17264180  .00000265  00000+0  11762-3 0  9999",
        "tle_line2": "2 60989  98.5685  55.7066 0001188  97.9261 262.2056 14.30815346 65814"
      },
      "geometry": {
        "type": "Point",
        "coordinates": [
          -117.18614692183479,
          37.59611024241166
        ]
      }
    },
    {
      "type": "Feature",
      "properties": {
        "norad_id": 61735,
        "name": "IONOSFERA-M 1",
        "group": "resource",
        "lat": 40.3017465534512,
        "lon": 40.98960653256904,
        "alt_km": 813.3132679492783,
        "timestamp": "2025-12-09T14:52:25.823915+00:00",
        "meta_object_name": "IONOSFERA-M 1",
        "meta_object_id": "2024-199A",
        "meta_epoch": "2025-12-09T07:28:15.943296",
        "meta_mean_motion": 14.22712961,
        "meta_eccentricity": 0.00011245,
        "meta_inclination": 98.7413,
        "meta_ra_of_asc_node": 213.1858,
        "meta_arg_of_pericenter": 26.5194,
        "meta_mean_anomaly": 333.6041,
        "meta_ephemeris_type": 0,
        "meta_classification_type": "U",
        "meta_norad_cat_id": 61735,
        "meta_element_set_no": 999,
        "meta_rev_at_epoch": 10070,
        "meta_bstar": 8.5857402e-05,
        "meta_mean_motion_dot": 1.48e-06,
        "meta_mean_motion_ddot": 0,
        "tle_line1": "1 61735U 24199A   25343.31129564  .00000148  00000+0  85857-4 0  9994",
        "tle_line2": "2 61735  98.7413 213.1858 0001124  26.5194 333.6041 14.22712961100702"
      },
      "geometry": {
        "type": "Point",
        "coordinates": [
          40.98960653256904,
          40.3017465534512
        ]
      }
    },
    {
      "type": "Feature",
      "properties": {
        "norad_id": 61736,
        "name": "IONOSFERA-M 2",
        "group": "resource",
        "lat": -37.91181725438981,
        "lon": -139.71444620104248,
        "alt_km": 823.5428459066779,
        "timestamp": "2025-12-09T14:52:25.823926+00:00",
        "meta_object_name": "IONOSFERA-M 2",
        "meta_object_id": "2024-199B",
        "meta_epoch": "2025-12-09T06:36:53.460864",
        "meta_mean_motion": 14.22715103,
        "meta_eccentricity": 0.00015712,
        "meta_inclination": 98.7404,
        "meta_ra_of_asc_node": 213.0629,
        "meta_arg_of_pericenter": 114.4742,
        "meta_mean_anomaly": 245.66,
        "meta_ephemeris_type": 0,
        "meta_classification_type": "U",
        "meta_norad_cat_id": 61736,
        "meta_element_set_no": 999,
        "meta_rev_at_epoch": 10382,
        "meta_bstar": 8.4402623e-05,
        "meta_mean_motion_dot": 1.45e-06,
        "meta_mean_motion_ddot": 0,
        "tle_line1": "1 61736U 24199B   25343.27561876  .00000145  00000+0  84403-4 0  9999",
        "tle_line2": "2 61736  98.7404 213.0629 0001571 114.4742 245.6600 14.22715103103820"
      },
      "geometry": {
        "type": "Point",
        "coordinates": [
          -139.71444620104248,
          -37.91181725438981
        ]
      }
    }
  ]
}